[
  {
    "name": "ONEWEB-0131",
    "noradId": "47277",
    "line1": "1 47277U 20100V   26176.49633439 -.00000284  00000+0 -82569-3 0  9991",
    "line2": "2 47277  87.8941 349.0168 0001632  94.9424 265.1890 13.12443462265779"
  },
  {
    "name": "ONEWEB-0132",
    "noradId": "47278",
    "line1": "1 47278U 20100W   26176.52512285  .00000040  00000+0  76334-4 0  9993",
    "line2": "2 47278  87.8943 349.0133 0001752  93.0491 267.0838 13.12445870265678"
  },
  {
    "name": "ONEWEB-0133",
    "noradId": "47279",
    "line1": "1 47279U 20100X   26176.84688809  .00000342  00000+0  91660-3 0  9998",
    "line2": "2 47279  87.8955 348.9263 0001653  93.6915 266.4402 13.12442497265875"
  },
  {
    "name": "ONEWEB-0134",
    "noradId": "47280",
    "line1": "1 47280U 20100Y   26176.51156293 -.00000333  00000+0 -96198-3 0  9994",
    "line2": "2 47280  87.8957 348.9901 0001790 101.1079 259.0250 13.12441916265803"
  },
  {
    "name": "ONEWEB-0135",
    "noradId": "47281",
    "line1": "1 47281U 20100Z   26176.48277647  .00000219  00000+0  57245-3 0  9999",
    "line2": "2 47281  87.8942 349.0175 0001647 101.5431 258.5882 13.12440611265828"
  },
  {
    "name": "ONEWEB-0136",
    "noradId": "47282",
    "line1": "1 47282U 20100AA  26176.50140321 -.00000387  00000+0 -11118-2 0  9997",
    "line2": "2 47282  87.8950 348.9958 0001781 102.8951 257.2377 13.12441101265757"
  },
  {
    "name": "ONEWEB-0137",
    "noradId": "47283",
    "line1": "1 47283U 20100AB  26176.84024950  .00000233  00000+0  61344-3 0  9999",
    "line2": "2 47283  87.8955 348.9389 0001932  89.1813 270.9537 13.12442980265704"
  },
  {
    "name": "ONEWEB-0138",
    "noradId": "47284",
    "line1": "1 47284U 20100AC  26176.51326561 -.00000308  00000+0 -89050-3 0  9996",
    "line2": "2 47284  87.8945 349.0064 0001653 106.7307 253.4003 13.12439864265745"
  },
  {
    "name": "ONEWEB-0139",
    "noradId": "47285",
    "line1": "1 47285U 20100AD  26176.70654995  .00000412  00000+0  11086-2 0  9990",
    "line2": "2 47285  87.8951 348.9570 0001857  94.0655 266.0686 13.12441018265846"
  },
  {
    "name": "ONEWEB-0140",
    "noradId": "47286",
    "line1": "1 47286U 20100AE  26176.50817970 -.00000443  00000+0 -12659-2 0  9996",
    "line2": "2 47286  87.8954 348.9873 0001643  92.1663 267.9654 13.12441926265783"
  },
  {
    "name": "ONEWEB-0141",
    "noradId": "47287",
    "line1": "1 47287U 20100AF  26176.85874611  .00000377  00000+0  10134-2 0  9990",
    "line2": "2 47287  87.8952 348.9226 0002077  88.0770 272.0597 13.12441502265816"
  },
  {
    "name": "ONEWEB-0142",
    "noradId": "47288",
    "line1": "1 47288U 20100AG  26176.84718030  .00000449  00000+0  12130-2 0  9990",
    "line2": "2 47288  87.8946 348.9459 0002230  95.1651 264.9732 13.12443869265804"
  },
  {
    "name": "ONEWEB-0143",
    "noradId": "47289",
    "line1": "1 47289U 20100AH  26176.85719080  .00000465  00000+0  12558-2 0  9990",
    "line2": "2 47289  87.8952 348.9431 0001845  92.2081 267.9258 13.12442260265785"
  },
  {
    "name": "ONEWEB-0144",
    "noradId": "47290",
    "line1": "1 47290U 20100AJ  26176.52343522 -.00000049  00000+0 -17179-3 0  9995",
    "line2": "2 47290  87.8956 348.9840 0002015 102.1573 257.9781 13.12445953265661"
  },
  {
    "name": "ONEWEB-0145",
    "noradId": "47291",
    "line1": "1 47291U 20100AK  26176.49463102 -.00000178  00000+0 -52888-3 0  9998",
    "line2": "2 47291  87.8943 349.0163 0001899  94.5311 265.6035 13.12440747265856"
  },
  {
    "name": "ONEWEB-0146",
    "noradId": "47292",
    "line1": "1 47292U 20100AL  26176.49124602 -.00000040  00000+0 -14731-3 0  9991",
    "line2": "2 47292  87.8952 349.0093 0001555  84.6128 275.5178 13.12440787265766"
  },
  {
    "name": "ONEWEB-0147",
    "noradId": "47293",
    "line1": "1 47293U 20100AM  26176.83855663  .00000410  00000+0  11040-2 0  9996",
    "line2": "2 47293  87.8952 348.9223 0001918  96.8956 263.2391 13.12441366265706"
  },
  {
    "name": "ONEWEB-0115",
    "noradId": "48042",
    "line1": "1 48042U 21025A   26176.85996579  .00000127  00000+0  31179-3 0  9991",
    "line2": "2 48042  87.8964 318.4966 0001770  96.9314 263.2016 13.13469875254734"
  },
  {
    "name": "ONEWEB-0152",
    "noradId": "48043",
    "line1": "1 48043U 21025B   26176.79732147 -.00000270  00000+0 -77450-3 0  9997",
    "line2": "2 48043  87.8971 318.5061 0001721  96.4123 263.7202 13.13470151254684"
  },
  {
    "name": "ONEWEB-0153",
    "noradId": "48044",
    "line1": "1 48044U 21025C   26176.85149256  .00000232  00000+0  59922-3 0  9998",
    "line2": "2 48044  87.8958 318.4972 0001987 100.6293 259.5060 13.13470250254685"
  },
  {
    "name": "ONEWEB-0154",
    "noradId": "48045",
    "line1": "1 48045U 21025D   26176.84810569  .00000522  00000+0  13952-2 0  9994",
    "line2": "2 48045  87.8960 318.4963 0001752 100.9138 259.2188 13.13469497254645"
  },
  {
    "name": "ONEWEB-0116",
    "noradId": "48046",
    "line1": "1 48046U 21025E   26176.81086639 -.00000265  00000+0 -75924-3 0  9999",
    "line2": "2 48046  87.8969 318.5009 0001720  97.4263 262.7061 13.13469674254782"
  },
  {
    "name": "ONEWEB-0150",
    "noradId": "48047",
    "line1": "1 48047U 21025F   26176.78716885 -.00000014  00000+0 -72001-4 0  9995",
    "line2": "2 48047  87.8968 318.5026 0001991  93.3498 266.7859 13.13470003254671"
  },
  {
    "name": "ONEWEB-0107",
    "noradId": "48048",
    "line1": "1 48048U 21025G   26176.78886155 -.00000050  00000+0 -17180-3 0  9990",
    "line2": "2 48048  87.8972 318.4984 0002100 101.2102 258.9263 13.13469917254655"
  },
  {
    "name": "ONEWEB-0101",
    "noradId": "48049",
    "line1": "1 48049U 21025H   26176.82781770 -.00002342  00000+0 -64511-2 0  9998",
    "line2": "2 48049  87.8953 318.5053 0001909 102.8744 257.2598 13.13450382254635"
  },
  {
    "name": "ONEWEB-0113",
    "noradId": "48050",
    "line1": "1 48050U 21025J   26176.84936829  .00000327  00000+0  85425-3 0  9996",
    "line2": "2 48050  87.8961 318.4105 0001852  94.1282 266.0059 13.13893402254746"
  },
  {
    "name": "ONEWEB-0112",
    "noradId": "48051",
    "line1": "1 48051U 21025K   26176.64158051 -.00000206  00000+0 -59767-3 0  9996",
    "line2": "2 48051  87.8973 318.5259 0001952 105.4160 254.7185 13.13470177254703"
  },
  {
    "name": "ONEWEB-0156",
    "noradId": "48052",
    "line1": "1 48052U 21025L   26176.80239708 -.00000499  00000+0 -14016-2 0  9995",
    "line2": "2 48052  87.8971 318.5037 0001961  97.8981 262.2371 13.13469392254709"
  },
  {
    "name": "ONEWEB-0161",
    "noradId": "48053",
    "line1": "1 48053U 21025M   26176.85318242  .00000286  00000+0  74761-3 0  9998",
    "line2": "2 48053  87.8968 318.4948 0002053  98.9663 261.1698 13.13470819254647"
  },
  {
    "name": "ONEWEB-0158",
    "noradId": "48054",
    "line1": "1 48054U 21025N   26176.81254934 -.00000248  00000+0 -71291-3 0  9997",
    "line2": "2 48054  87.8971 318.5006 0001614 101.8000 258.3311 13.13472916254762"
  }
]