OBJECT_NAME,OBJECT_ID,EPOCH,MEAN_MOTION,ECCENTRICITY,INCLINATION,RA_OF_ASC_NODE,ARG_OF_PERICENTER,MEAN_ANOMALY,EPHEMERIS_TYPE,CLASSIFICATION_TYPE,NORAD_CAT_ID,ELEMENT_SET_NO,REV_AT_EPOCH,BSTAR,MEAN_MOTION_DOT,MEAN_MOTION_DDOT
ONEWEB-0131,2020-100V,2026-06-25T11:54:43.291296,13.12443462,.0001632,87.8941,349.0168,94.9424,265.1890,0,U,47277,999,26577,-.82569E-3,-.284E-5,0
ONEWEB-0132,2020-100W,2026-06-25T12:36:10.614240,13.12445870,.0001752,87.8943,349.0133,93.0491,267.0838,0,U,47278,999,26567,.76334E-4,.4E-6,0
ONEWEB-0133,2020-100X,2026-06-25T20:19:31.130976,13.12442497,.0001653,87.8955,348.9263,93.6915,266.4402,0,U,47279,999,26587,.9166E-3,.342E-5,0
ONEWEB-0134,2020-100Y,2026-06-25T12:16:39.037152,13.12441916,.000179,87.8957,348.9901,101.1079,259.0250,0,U,47280,999,26580,-.96198E-3,-.333E-5,0
ONEWEB-0135,2020-100Z,2026-06-25T11:35:11.887008,13.12440611,.0001647,87.8942,349.0175,101.5431,258.5882,0,U,47281,999,26582,.57245E-3,.219E-5,0
ONEWEB-0136,2020-100AA,2026-06-25T12:02:01.237344,13.12441101,.0001781,87.8950,348.9958,102.8951,257.2377,0,U,47282,999,26575,-.11118E-2,-.387E-5,0
ONEWEB-0137,2020-100AB,2026-06-25T20:09:57.556800,13.12442980,.0001932,87.8955,348.9389,89.1813,270.9537,0,U,47283,999,26570,.61344E-3,.233E-5,0
ONEWEB-0138,2020-100AC,2026-06-25T12:19:06.148704,13.12439864,.0001653,87.8945,349.0064,106.7307,253.4003,0,U,47284,999,26574,-.8905E-3,-.308E-5,0
ONEWEB-0139,2020-100AD,2026-06-25T16:57:25.915680,13.12441018,.0001857,87.8951,348.9570,94.0655,266.0686,0,U,47285,999,26584,.11086E-2,.412E-5,0
ONEWEB-0140,2020-100AE,2026-06-25T12:11:46.726080,13.12441926,.0001643,87.8954,348.9873,92.1663,267.9654,0,U,47286,999,26578,-.12659E-2,-.443E-5,0
ONEWEB-0141,2020-100AF,2026-06-25T20:36:35.663904,13.12441502,.0002077,87.8952,348.9226,88.0770,272.0597,0,U,47287,999,26581,.10134E-2,.377E-5,0
ONEWEB-0142,2020-100AG,2026-06-25T20:19:56.377920,13.12443869,.000223,87.8946,348.9459,95.1651,264.9732,0,U,47288,999,26580,.1213E-2,.449E-5,0
ONEWEB-0143,2020-100AH,2026-06-25T20:34:21.285120,13.12442260,.0001845,87.8952,348.9431,92.2081,267.9258,0,U,47289,999,26578,.12558E-2,.465E-5,0
ONEWEB-0144,2020-100AJ,2026-06-25T12:33:44.803008,13.12445953,.0002015,87.8956,348.9840,102.1573,257.9781,0,U,47290,999,26566,-.17179E-3,-.49E-6,0
ONEWEB-0145,2020-100AK,2026-06-25T11:52:16.120128,13.12440747,.0001899,87.8943,349.0163,94.5311,265.6035,0,U,47291,999,26585,-.52888E-3,-.178E-5,0
ONEWEB-0146,2020-100AL,2026-06-25T11:47:23.656128,13.12440787,.0001555,87.8952,349.0093,84.6128,275.5178,0,U,47292,999,26576,-.14731E-3,-.4E-6,0
ONEWEB-0147,2020-100AM,2026-06-25T20:07:31.292832,13.12441366,.0001918,87.8952,348.9223,96.8956,263.2391,0,U,47293,999,26570,.1104E-2,.41E-5,0
ONEWEB-0115,2021-025A,2026-06-25T20:38:21.044256,13.13469875,.000177,87.8964,318.4966,96.9314,263.2016,0,U,48042,999,25473,.31179E-3,.127E-5,0
ONEWEB-0152,2021-025B,2026-06-25T19:08:08.575008,13.13470151,.0001721,87.8971,318.5061,96.4123,263.7202,0,U,48043,999,25468,-.7745E-3,-.27E-5,0
ONEWEB-0153,2021-025C,2026-06-25T20:26:08.957184,13.13470250,.0001987,87.8958,318.4972,100.6293,259.5060,0,U,48044,999,25468,.59922E-3,.232E-5,0
ONEWEB-0154,2021-025D,2026-06-25T20:21:16.331616,13.13469497,.0001752,87.8960,318.4963,100.9138,259.2188,0,U,48045,999,25464,.13952E-2,.522E-5,0
ONEWEB-0116,2021-025E,2026-06-25T19:27:38.856096,13.13469674,.000172,87.8969,318.5009,97.4263,262.7061,0,U,48046,999,25478,-.75924E-3,-.265E-5,0
ONEWEB-0150,2021-025F,2026-06-25T18:53:31.388640,13.13470003,.0001991,87.8968,318.5026,93.3498,266.7859,0,U,48047,999,25467,-.72001E-4,-.14E-6,0
ONEWEB-0107,2021-025G,2026-06-25T18:55:57.637920,13.13469917,.00021,87.8972,318.4984,101.2102,258.9263,0,U,48048,999,25465,-.1718E-3,-.5E-6,0
ONEWEB-0101,2021-025H,2026-06-25T19:52:03.449280,13.13450382,.0001909,87.8953,318.5053,102.8744,257.2598,0,U,48049,999,25463,-.64511E-2,-.2342E-4,0
ONEWEB-0113,2021-025J,2026-06-25T20:23:05.420256,13.13893402,.0001852,87.8961,318.4105,94.1282,266.0059,0,U,48050,999,25474,.85425E-3,.327E-5,0
ONEWEB-0112,2021-025K,2026-06-25T15:23:52.556064,13.13470177,.0001952,87.8973,318.5259,105.4160,254.7185,0,U,48051,999,25470,-.59767E-3,-.206E-5,0
ONEWEB-0156,2021-025L,2026-06-25T19:15:27.107712,13.13469392,.0001961,87.8971,318.5037,97.8981,262.2371,0,U,48052,999,25470,-.14016E-2,-.499E-5,0
ONEWEB-0161,2021-025M,2026-06-25T20:28:34.961088,13.13470819,.0002053,87.8968,318.4948,98.9663,261.1698,0,U,48053,999,25464,.74761E-3,.286E-5,0
ONEWEB-0158,2021-025N,2026-06-25T19:30:04.262976,13.13472916,.0001614,87.8971,318.5006,101.8000,258.3311,0,U,48054,999,25476,-.71291E-3,-.248E-5,0
